STARLINK-30848          
1 58240U 23171L   26068.02064189 -.00001460  00000+0 -44759-4 0  9990
2 58240  43.0006 288.8677 0001815 274.3753  85.6891 15.26738956129636
STRIX-4                 
1 60352U 24137A   26068.65404516  .00020530  00000+0  71820-3 0  9996
2 60352  43.0134 129.8162 0016840   5.2738 354.8289 15.29026223 88766
