[{"OBJECT_NAME":"STARLINK-30848","OBJECT_ID":"2023-171L","EPOCH":"2026-03-09T00:29:43.459296","MEAN_MOTION":15.26738956,"ECCENTRICITY":0.00018158,"INCLINATION":43.0006,"RA_OF_ASC_NODE":288.8677,"ARG_OF_PERICENTER":274.3753,"MEAN_ANOMALY":85.6891,"EPHEMERIS_TYPE":0,"CLASSIFICATION_TYPE":"U","NORAD_CAT_ID":58240,"ELEMENT_SET_NO":999,"REV_AT_EPOCH":12963,"BSTAR":-4.475902e-5,"MEAN_MOTION_DOT":-1.46e-5,"MEAN_MOTION_DDOT":0},{"OBJECT_NAME":"STRIX-4","OBJECT_ID":"2024-137A","EPOCH":"2026-03-09T15:41:49.501824","MEAN_MOTION":15.29026224,"ECCENTRICITY":0.00168396,"INCLINATION":43.0134,"RA_OF_ASC_NODE":129.8162,"ARG_OF_PERICENTER":5.2738,"MEAN_ANOMALY":354.8289,"EPHEMERIS_TYPE":0,"CLASSIFICATION_TYPE":"U","NORAD_CAT_ID":60352,"ELEMENT_SET_NO":999,"REV_AT_EPOCH":8876,"BSTAR":0.00071819834,"MEAN_MOTION_DOT":0.0002053,"MEAN_MOTION_DDOT":0}]
